[{"OBJECT_NAME":"ONEWEB-0581","OBJECT_ID":"2023-043Z","EPOCH":"2026-03-09T21:33:27.726912","MEAN_MOTION":13.16594209,"ECCENTRICITY":0.00010205,"INCLINATION":87.9006,"RA_OF_ASC_NODE":248.5313,"ARG_OF_PERICENTER":100.8617,"MEAN_ANOMALY":259.2628,"EPHEMERIS_TYPE":0,"CLASSIFICATION_TYPE":"U","NORAD_CAT_ID":56069,"ELEMENT_SET_NO":999,"REV_AT_EPOCH":14589,"BSTAR":-0.00025132405,"MEAN_MOTION_DOT":-8.3e-7,"MEAN_MOTION_DDOT":0},{"OBJECT_NAME":"FENGYUN 1C DEB","OBJECT_ID":"1999-025DAS","EPOCH":"2026-03-01T20:46:03.895968","MEAN_MOTION":13.70743022,"ECCENTRICITY":0.0368947,"INCLINATION":98.6883,"RA_OF_ASC_NODE":83.2127,"ARG_OF_PERICENTER":60.2344,"MEAN_ANOMALY":303.4973,"EPHEMERIS_TYPE":0,"CLASSIFICATION_TYPE":"U","NORAD_CAT_ID":32430,"ELEMENT_SET_NO":999,"REV_AT_EPOCH":92287,"BSTAR":0.003533,"MEAN_MOTION_DOT":5.057e-5,"MEAN_MOTION_DDOT":0}]
